[{"OBJECT_NAME":"STARLINK-3814","OBJECT_ID":"2022-045E","EPOCH":"2026-02-12T01:42:57.307968","MEAN_MOTION":15.08838672,"ECCENTRICITY":0.00017664,"INCLINATION":53.2199,"RA_OF_ASC_NODE":324.1237,"ARG_OF_PERICENTER":102.2974,"MEAN_ANOMALY":257.8216,"EPHEMERIS_TYPE":0,"CLASSIFICATION_TYPE":"U","NORAD_CAT_ID":52335,"ELEMENT_SET_NO":999,"REV_AT_EPOCH":21177,"BSTAR":0.00012689827,"MEAN_MOTION_DOT":1.732e-5,"MEAN_MOTION_DDOT":0},{"OBJECT_NAME":"STARLINK-3823","OBJECT_ID":"2022-045F","EPOCH":"2026-02-12T04:16:35.464800","MEAN_MOTION":15.0884726,"ECCENTRICITY":0.00013823,"INCLINATION":53.2195,"RA_OF_ASC_NODE":323.4399,"ARG_OF_PERICENTER":97.9487,"MEAN_ANOMALY":262.1662,"EPHEMERIS_TYPE":0,"CLASSIFICATION_TYPE":"U","NORAD_CAT_ID":52336,"ELEMENT_SET_NO":999,"REV_AT_EPOCH":21179,"BSTAR":-4.2125407e-5,"MEAN_MOTION_DOT":-9.58e-6,"MEAN_MOTION_DDOT":0},{"OBJECT_NAME":"STARLINK-3797","OBJECT_ID":"2022-045G","EPOCH":"2026-02-12T03:34:14.239488","MEAN_MOTION":15.088387,"ECCENTRICITY":0.00014323,"INCLINATION":53.2175,"RA_OF_ASC_NODE":323.7823,"ARG_OF_PERICENTER":108.8492,"MEAN_ANOMALY":251.2656,"EPHEMERIS_TYPE":0,"CLASSIFICATION_TYPE":"U","NORAD_CAT_ID":52337,"ELEMENT_SET_NO":999,"REV_AT_EPOCH":21178,"BSTAR":0.00056783084,"MEAN_MOTION_DOT":8.76e-5,"MEAN_MOTION_DDOT":0},{"OBJECT_NAME":"STARLINK-3792","OBJECT_ID":"2022-045J","EPOCH":"2026-02-12T03:44:46.984704","MEAN_MOTION":15.0883603,"ECCENTRICITY":0.00013806,"INCLINATION":53.2188,"RA_OF_ASC_NODE":323.3896,"ARG_OF_PERICENTER":76.1534,"MEAN_ANOMALY":283.9611,"EPHEMERIS_TYPE":0,"CLASSIFICATION_TYPE":"U","NORAD_CAT_ID":52339,"ELEMENT_SET_NO":999,"REV_AT_EPOCH":21179,"BSTAR":4.7579151e-5,"MEAN_MOTION_DOT":4.69e-6,"MEAN_MOTION_DDOT":0},{"OBJECT_NAME":"STARLINK-3818","OBJECT_ID":"2022-045K","EPOCH":"2026-02-12T03:40:50.971872","MEAN_MOTION":15.08840744,"ECCENTRICITY":0.00013568,"INCLINATION":53.2185,"RA_OF_ASC_NODE":313.7566,"ARG_OF_PERICENTER":84.6277,"MEAN_ANOMALY":275.4869,"EPHEMERIS_TYPE":0,"CLASSIFICATION_TYPE":"U","NORAD_CAT_ID":52340,"ELEMENT_SET_NO":999,"REV_AT_EPOCH":21191,"BSTAR":0.00020436206,"MEAN_MOTION_DOT":2.966e-5,"MEAN_MOTION_DDOT":0},{"OBJECT_NAME":"STARLINK-3843","OBJECT_ID":"2022-045L","EPOCH":"2026-02-12T04:32:31.179264","MEAN_MOTION":15.08843791,"ECCENTRICITY":0.00014144,"INCLINATION":53.2191,"RA_OF_ASC_NODE":323.548,"ARG_OF_PERICENTER":93.3696,"MEAN_ANOMALY":266.7458,"EPHEMERIS_TYPE":0,"CLASSIFICATION_TYPE":"U","NORAD_CAT_ID":52341,"ELEMENT_SET_NO":999,"REV_AT_EPOCH":21179,"BSTAR":2.9350035e-5,"MEAN_MOTION_DOT":1.79e-6,"MEAN_MOTION_DDOT":0},{"OBJECT_NAME":"STARLINK-3850","OBJECT_ID":"2022-045M","EPOCH":"2026-02-12T03:46:10.924032","MEAN_MOTION":15.08840877,"ECCENTRICITY":0.00015303,"INCLINATION":53.2199,"RA_OF_ASC_NODE":313.8543,"ARG_OF_PERICENTER":89.955,"MEAN_ANOMALY":270.1617,"EPHEMERIS_TYPE":0,"CLASSIFICATION_TYPE":"U","NORAD_CAT_ID":52342,"ELEMENT_SET_NO":999,"REV_AT_EPOCH":21192,"BSTAR":3.8456399e-5,"MEAN_MOTION_DOT":3.24e-6,"MEAN_MOTION_DDOT":0},{"OBJECT_NAME":"STARLINK-3849","OBJECT_ID":"2022-045N","EPOCH":"2026-02-12T02:14:45.405312","MEAN_MOTION":15.08839344,"ECCENTRICITY":0.0001636,"INCLINATION":53.2199,"RA_OF_ASC_NODE":324.0275,"ARG_OF_PERICENTER":68.7062,"MEAN_ANOMALY":291.4105,"EPHEMERIS_TYPE":0,"CLASSIFICATION_TYPE":"U","NORAD_CAT_ID":52343,"ELEMENT_SET_NO":999,"REV_AT_EPOCH":21178,"BSTAR":6.5505662e-5,"MEAN_MOTION_DOT":7.55e-6,"MEAN_MOTION_DDOT":0},{"OBJECT_NAME":"STARLINK-3851","OBJECT_ID":"2022-045P","EPOCH":"2026-02-12T03:30:16.553952","MEAN_MOTION":15.08848987,"ECCENTRICITY":0.00021499,"INCLINATION":53.2194,"RA_OF_ASC_NODE":313.8563,"ARG_OF_PERICENTER":93.9772,"MEAN_ANOMALY":266.1466,"EPHEMERIS_TYPE":0,"CLASSIFICATION_TYPE":"U","NORAD_CAT_ID":52344,"ELEMENT_SET_NO":999,"REV_AT_EPOCH":21192,"BSTAR":3.9487802e-5,"MEAN_MOTION_DOT":3.4e-6,"MEAN_MOTION_DDOT":0},{"OBJECT_NAME":"STARLINK-3852","OBJECT_ID":"2022-045Q","EPOCH":"2026-02-11T23:22:36.574752","MEAN_MOTION":15.08839597,"ECCENTRICITY":0.0001267,"INCLINATION":53.2187,"RA_OF_ASC_NODE":314.7253,"ARG_OF_PERICENTER":96.5482,"MEAN_ANOMALY":263.5655,"EPHEMERIS_TYPE":0,"CLASSIFICATION_TYPE":"U","NORAD_CAT_ID":52345,"ELEMENT_SET_NO":999,"REV_AT_EPOCH":21188,"BSTAR":8.9204e-5,"MEAN_MOTION_DOT":1.132e-5,"MEAN_MOTION_DDOT":0},{"OBJECT_NAME":"STARLINK-3812","OBJECT_ID":"2022-045R","EPOCH":"2026-02-12T03:21:03.228480","MEAN_MOTION":15.08840077,"ECCENTRICITY":0.00013123,"INCLINATION":53.2186,"RA_OF_ASC_NODE":313.8299,"ARG_OF_PERICENTER":94.7604,"MEAN_ANOMALY":265.3538,"EPHEMERIS_TYPE":0,"CLASSIFICATION_TYPE":"U","NORAD_CAT_ID":52346,"ELEMENT_SET_NO":999,"REV_AT_EPOCH":21192,"BSTAR":6.0795076e-5,"MEAN_MOTION_DOT":6.8e-6,"MEAN_MOTION_DDOT":0},{"OBJECT_NAME":"STARLINK-3826","OBJECT_ID":"2022-045S","EPOCH":"2026-02-12T03:36:56.416608","MEAN_MOTION":15.08847623,"ECCENTRICITY":0.00014811,"INCLINATION":53.2187,"RA_OF_ASC_NODE":313.7791,"ARG_OF_PERICENTER":79.4818,"MEAN_ANOMALY":280.6341,"EPHEMERIS_TYPE":0,"CLASSIFICATION_TYPE":"U","NORAD_CAT_ID":52347,"ELEMENT_SET_NO":999,"REV_AT_EPOCH":21192,"BSTAR":5.2608731e-5,"MEAN_MOTION_DOT":5.5e-6,"MEAN_MOTION_DDOT":0},{"OBJECT_NAME":"STARLINK-3829","OBJECT_ID":"2022-045T","EPOCH":"2026-02-12T03:09:04.551552","MEAN_MOTION":15.08840836,"ECCENTRICITY":0.00014932,"INCLINATION":53.2182,"RA_OF_ASC_NODE":313.8596,"ARG_OF_PERICENTER":86.5161,"MEAN_ANOMALY":273.6002,"EPHEMERIS_TYPE":0,"CLASSIFICATION_TYPE":"U","NORAD_CAT_ID":52348,"ELEMENT_SET_NO":999,"REV_AT_EPOCH":21192,"BSTAR":4.4145654e-5,"MEAN_MOTION_DOT":4.15e-6,"MEAN_MOTION_DDOT":0},{"OBJECT_NAME":"STARLINK-3819","OBJECT_ID":"2022-045U","EPOCH":"2026-02-12T00:14:12.023232","MEAN_MOTION":15.08841617,"ECCENTRICITY":0.00016171,"INCLINATION":53.2182,"RA_OF_ASC_NODE":314.4002,"ARG_OF_PERICENTER":70.3547,"MEAN_ANOMALY":289.762,"EPHEMERIS_TYPE":0,"CLASSIFICATION_TYPE":"U","NORAD_CAT_ID":52349,"ELEMENT_SET_NO":999,"REV_AT_EPOCH":21190,"BSTAR":6.7597511e-5,"MEAN_MOTION_DOT":7.88e-6,"MEAN_MOTION_DDOT":0},{"OBJECT_NAME":"STARLINK-3754","OBJECT_ID":"2022-045V","EPOCH":"2026-02-12T03:03:47.595744","MEAN_MOTION":15.08831325,"ECCENTRICITY":0.00017296,"INCLINATION":53.2198,"RA_OF_ASC_NODE":313.8761,"ARG_OF_PERICENTER":82.3991,"MEAN_ANOMALY":277.7198,"EPHEMERIS_TYPE":0,"CLASSIFICATION_TYPE":"U","NORAD_CAT_ID":52350,"ELEMENT_SET_NO":999,"REV_AT_EPOCH":21192,"BSTAR":0.00025507743,"MEAN_MOTION_DOT":3.773e-5,"MEAN_MOTION_DDOT":0},{"OBJECT_NAME":"STARLINK-3838","OBJECT_ID":"2022-045X","EPOCH":"2026-02-12T04:23:15.336960","MEAN_MOTION":15.08843663,"ECCENTRICITY":0.0001523,"INCLINATION":53.2193,"RA_OF_ASC_NODE":313.6262,"ARG_OF_PERICENTER":87.0331,"MEAN_ANOMALY":273.0836,"EPHEMERIS_TYPE":0,"CLASSIFICATION_TYPE":"U","NORAD_CAT_ID":52352,"ELEMENT_SET_NO":999,"REV_AT_EPOCH":21193,"BSTAR":9.2807578e-5,"MEAN_MOTION_DOT":1.189e-5,"MEAN_MOTION_DDOT":0},{"OBJECT_NAME":"STARLINK-3807","OBJECT_ID":"2022-045Y","EPOCH":"2026-02-12T04:33:51.577056","MEAN_MOTION":15.08838077,"ECCENTRICITY":0.00013058,"INCLINATION":53.2177,"RA_OF_ASC_NODE":313.5907,"ARG_OF_PERICENTER":95.9648,"MEAN_ANOMALY":264.1493,"EPHEMERIS_TYPE":0,"CLASSIFICATION_TYPE":"U","NORAD_CAT_ID":52353,"ELEMENT_SET_NO":999,"REV_AT_EPOCH":21193,"BSTAR":8.3483662e-5,"MEAN_MOTION_DOT":1.041e-5,"MEAN_MOTION_DDOT":0},{"OBJECT_NAME":"STARLINK-3877","OBJECT_ID":"2022-045AA","EPOCH":"2026-02-12T06:03:56.552832","MEAN_MOTION":15.08840425,"ECCENTRICITY":0.00013681,"INCLINATION":53.2184,"RA_OF_ASC_NODE":313.3135,"ARG_OF_PERICENTER":95.7322,"MEAN_ANOMALY":264.3826,"EPHEMERIS_TYPE":0,"CLASSIFICATION_TYPE":"U","NORAD_CAT_ID":52355,"ELEMENT_SET_NO":999,"REV_AT_EPOCH":21194,"BSTAR":0.00014691311,"MEAN_MOTION_DOT":2.051e-5,"MEAN_MOTION_DDOT":0},{"OBJECT_NAME":"STARLINK-3801","OBJECT_ID":"2022-045AB","EPOCH":"2026-02-11T23:26:30.477696","MEAN_MOTION":15.08840131,"ECCENTRICITY":0.0001297,"INCLINATION":53.2186,"RA_OF_ASC_NODE":314.5794,"ARG_OF_PERICENTER":91.2573,"MEAN_ANOMALY":268.8567,"EPHEMERIS_TYPE":0,"CLASSIFICATION_TYPE":"U","NORAD_CAT_ID":52356,"ELEMENT_SET_NO":999,"REV_AT_EPOCH":21190,"BSTAR":5.1614e-5,"MEAN_MOTION_DOT":5.34e-6,"MEAN_MOTION_DDOT":0},{"OBJECT_NAME":"STARLINK-3821","OBJECT_ID":"2022-045AC","EPOCH":"2026-02-12T02:42:34.290432","MEAN_MOTION":15.08855537,"ECCENTRICITY":0.00015563,"INCLINATION":53.2195,"RA_OF_ASC_NODE":313.9425,"ARG_OF_PERICENTER":95.1804,"MEAN_ANOMALY":264.9365,"EPHEMERIS_TYPE":0,"CLASSIFICATION_TYPE":"U","NORAD_CAT_ID":52357,"ELEMENT_SET_NO":999,"REV_AT_EPOCH":21192,"BSTAR":0.00023840048,"MEAN_MOTION_DOT":3.51e-5,"MEAN_MOTION_DDOT":0},{"OBJECT_NAME":"STARLINK-3837","OBJECT_ID":"2022-045AD","EPOCH":"2026-02-12T03:51:28.895040","MEAN_MOTION":15.08832467,"ECCENTRICITY":0.00016479,"INCLINATION":53.2191,"RA_OF_ASC_NODE":313.7202,"ARG_OF_PERICENTER":80.8638,"MEAN_ANOMALY":279.254,"EPHEMERIS_TYPE":0,"CLASSIFICATION_TYPE":"U","NORAD_CAT_ID":52358,"ELEMENT_SET_NO":999,"REV_AT_EPOCH":21193,"BSTAR":-3.7921343e-5,"MEAN_MOTION_DOT":-8.91e-6,"MEAN_MOTION_DDOT":0},{"OBJECT_NAME":"STARLINK-3853","OBJECT_ID":"2022-045AE","EPOCH":"2026-02-11T23:27:52.803936","MEAN_MOTION":15.08841697,"ECCENTRICITY":0.000155,"INCLINATION":53.2187,"RA_OF_ASC_NODE":314.5556,"ARG_OF_PERICENTER":101.1966,"MEAN_ANOMALY":258.92,"EPHEMERIS_TYPE":0,"CLASSIFICATION_TYPE":"U","NORAD_CAT_ID":52359,"ELEMENT_SET_NO":999,"REV_AT_EPOCH":21190,"BSTAR":4.4477e-5,"MEAN_MOTION_DOT":4.2e-6,"MEAN_MOTION_DDOT":0},{"OBJECT_NAME":"STARLINK-3728","OBJECT_ID":"2022-045AG","EPOCH":"2026-02-12T04:02:03.014016","MEAN_MOTION":15.0884589,"ECCENTRICITY":0.00013705,"INCLINATION":53.2184,"RA_OF_ASC_NODE":313.6919,"ARG_OF_PERICENTER":80.2981,"MEAN_ANOMALY":279.8166,"EPHEMERIS_TYPE":0,"CLASSIFICATION_TYPE":"U","NORAD_CAT_ID":52361,"ELEMENT_SET_NO":999,"REV_AT_EPOCH":21193,"BSTAR":0.0001272656,"MEAN_MOTION_DOT":1.738e-5,"MEAN_MOTION_DDOT":0}]
